GLOBALSTAR M073 [+]     
1 37193U 10054F   24034.59604242 -.00000094  00000+0  53666-4 0  9991
2 37193  52.0047 176.1175 0000930  99.5041 341.4726 12.62272005614747
GLOBALSTAR M083 [+]     
1 37739U 11033A   24034.45086778 -.00000094  00000+0  52213-4 0  9995
2 37739  51.9859 125.9763 0000740 129.8447 310.6909 12.62265661583749
GLOBALSTAR M088 [+]     
1 37740U 11033B   24034.18680894 -.00000100  00000+0  20656-4 0  9990
2 37740  51.9752  32.6911 0000191 152.1169 288.5028 12.62264474579259
GLOBALSTAR M091 [+]     
1 37741U 11033C   24034.29408517 -.00000088  00000+0  87142-4 0  9991
2 37741  52.0029 355.0269 0000084 113.3052  34.4960 12.62270712580053
GLOBALSTAR M085 [+]     
1 37742U 11033D   24034.20538765 -.00000082  00000+0  12195-3 0  9991
2 37742  51.9884 306.7815 0000418  68.6469  95.5054 12.62267250580556
GLOBALSTAR M081 [+]     
1 37743U 11033E   24034.23215942 -.00000083  00000+0  11350-3 0  9997
2 37743  51.9977 309.1773 0000353  38.6364 127.6053 12.62269031580701
